NORAD_CAT_ID,OBJECT_NAME,OBJECT_TYPE,EPOCH,MEAN_MOTION,ECCENTRICITY,INCLINATION,RA_OF_ASC_NODE,ARG_OF_PERICENTER,MEAN_ANOMALY,BSTAR,MEAN_MOTION_DOT,MEAN_MOTION_DDOT,TLE_LINE0,TLE_LINE1,TLE_LINE2,SEMIMAJOR_AXIS,PERIOD,APOGEE,PERIGEE,DECAYED
55940.0,STARLINK-5864,PAYLOAD,2024-04-23 13:18:01,14.9831758,0.00024,70.003,211.9229,260.1288,99.9601,0.00020187,2.316e-05,0.0,0 STARLINK-5864,1 55940U 23037AC  24114.55418896  .00002316  00000-0  20187-3 0  9999,2 55940  70.0030 211.9229 0002400 260.1288  99.9601 14.98317580 61696,6950.231,96.108,573.764,570.428,0.0
55940.0,STARLINK-5864,PAYLOAD,2024-04-23 16:30:18,14.9831684,0.000242,70.0029,211.5865,261.4842,98.6043,0.00028261,3.28e-05,0.0,0 STARLINK-5864,1 55940U 23037AC  24114.68770856  .00003280  00000-0  28261-3 0  9992,2 55940  70.0029 211.5865 0002420 261.4842  98.6043 14.98316840 61377,6950.234,96.108,573.781,570.417,0.0
55940.0,STARLINK-5864,PAYLOAD,2024-04-24 13:20:02,14.98331225,0.0002389,70.0029,209.3996,252.2455,107.8443,-1.8e-05,-3.08e-06,0.0,0 STARLINK-5864,1 55940U 23037AC  24115.55558942 -.00000308  00000-0 -18000-4 0  9990,2 55940  70.0029 209.3996 0002389 252.2455 107.8443 14.98331225 61505,6950.189,96.107,573.715,570.394,0.0
55940.0,STARLINK-5864,PAYLOAD,2024-04-24 16:32:18,14.98333452,0.0002359,70.0029,209.0635,248.3653,111.7255,-6.2569e-06,-1.68e-06,0.0,0 STARLINK-5864,1 55940U 23037AC  24115.68910798 -.00000168  00000-0 -62569-5 0  9999,2 55940  70.0029 209.0635 0002359 248.3653 111.7255 14.98333452 61863,6950.182,96.107,573.687,570.408,0.0
55940.0,STARLINK-5864,PAYLOAD,2024-04-25 14:58:11,14.98331823,0.0002476,70.0028,206.7045,258.3711,101.717,5.6379e-05,5.8e-06,0.0,0 STARLINK-5864,1 55940U 23037AC  24116.62374515  .00000580  00000-0  56379-4 0  9992,2 55940  70.0028 206.7045 0002476 258.3711 101.7170 14.98331823 61660,6950.187,96.107,573.773,570.331,0.0
55940.0,STARLINK-5864,PAYLOAD,2024-04-26 05:23:23,14.98331988,0.0002535,70.0021,205.189,244.2387,115.8511,8.1049e-05,8.74e-06,0.0,0 STARLINK-5864,1 55940U 23037AC  24117.22458177  .00000874  00000-0  81049-4 0  9994,2 55940  70.0021 205.1890 0002535 244.2387 115.8511 14.98331988 62098,6950.187,96.107,573.814,570.29,0.0
55940.0,STARLINK-5864,PAYLOAD,2024-04-26 13:24:04,14.98333678,0.0002655,70.0017,204.3468,252.8829,107.204,8.3324e-05,9.01e-06,0.0,0 STARLINK-5864,1 55940U 23037AC  24117.55838011  .00000901  00000-0  83324-4 0  9998,2 55940  70.0017 204.3468 0002655 252.8829 107.2040 14.98333678 61802,6950.182,96.107,573.892,570.201,0.0
55940.0,STARLINK-5864,PAYLOAD,2024-04-26 15:00:11,14.98334949,0.0002584,70.0019,204.1786,251.5488,108.5391,0.00010377,1.146e-05,0.0,0 STARLINK-5864,1 55940U 23037AC  24117.62513865  .00001146  00000-0  10377-3 0  9992,2 55940  70.0019 204.1786 0002584 251.5488 108.5391 14.98334949 61819,6950.178,96.107,573.839,570.247,0.0
55940.0,STARLINK-5864,PAYLOAD,2024-04-27 05:25:24,14.98335296,0.0002748,70.0021,202.6637,260.5505,99.5343,-1.5462e-05,-2.77e-06,0.0,0 STARLINK-5864,1 55940U 23037AC  24118.22598020 -.00000277  00000-0 -15462-4 0  9992,2 55940  70.0021 202.6637 0002748 260.5505  99.5343 14.98335296 62242,6950.177,96.107,573.951,570.132,0.0
55940.0,STARLINK-5864,PAYLOAD,2024-04-27 13:26:05,14.98331403,0.0002605,70.0017,201.8225,260.8523,99.2341,-5.4231e-06,-1.58e-06,0.0,0 STARLINK-5864,1 55940U 23037AC  24118.55978156 -.00000158  00000-0 -54231-5 0  9996,2 55940  70.0017 201.8225 0002605 260.8523  99.2341 14.98331403 61954,6950.189,96.107,573.864,570.243,0.0
55940.0,STARLINK-5864,PAYLOAD,2024-04-27 15:02:12,14.98334516,0.0002776,70.0013,201.6539,266.1509,93.9332,1.8763e-05,1.31e-06,0.0,0 STARLINK-5864,1 55940U 23037AC  24118.62653867  .00000131  00000-0  18763-4 0  9991,2 55940  70.0013 201.6539 0002776 266.1509  93.9332 14.98334516 61968,6950.179,96.107,573.973,570.115,0.0
55940.0,STARLINK-5864,PAYLOAD,2024-04-28 05:27:26,14.9832177,0.0002973,70.0015,200.139,267.0324,93.0495,-0.00015794,-1.977e-05,0.0,0 STARLINK-5864,1 55940U 23037AC  24119.22739233 -.00001977  00000-0 -15794-3 0  9991,2 55940  70.0015 200.1390 0002973 267.0324  93.0495 14.98321770 62390,6950.218,96.108,574.15,570.017,0.0
55940.0,STARLINK-5864,PAYLOAD,2024-04-28 13:28:07,14.9831488,0.000256,70.0017,199.2967,256.3335,103.7539,-0.00015758,-1.972e-05,0.0,0 STARLINK-5864,1 55940U 23037AC  24119.56119861 -.00001972  00000-0 -15758-3 0  9992,2 55940  70.0017 199.2967 0002560 256.3335 103.7539 14.98314880 62106,6950.24,96.108,573.884,570.325,0.0
55940.0,STARLINK-5864,PAYLOAD,2024-04-28 15:04:15,14.98316924,0.0002851,70.0012,199.1291,265.8209,94.2624,-0.00017617,-2.194e-05,0.0,0 STARLINK-5864,1 55940U 23037AC  24119.62795890 -.00002194  00000-0 -17617-3 0  9994,2 55940  70.0012 199.1291 0002851 265.8209  94.2624 14.98316924 62119,6950.233,96.108,574.08,570.117,0.0
55940.0,STARLINK-5864,PAYLOAD,2024-04-29 05:29:27,14.98324175,0.0003186,70.0002,197.6137,270.7013,89.3781,-2.0369e-05,-3.36e-06,0.0,0 STARLINK-5864,1 55940U 23037AC  24120.22879202 -.00000336  00000-0 -20369-4 0  9997,2 55940  70.0002 197.6137 0003186 270.7013  89.3781 14.98324175 62543,6950.211,96.107,574.29,569.862,0.0
55940.0,STARLINK-5864,PAYLOAD,2024-04-29 13:30:07,14.98331328,0.00031,70.0004,196.7721,270.2674,89.813,6.2018e-05,6.47e-06,0.0,0 STARLINK-5864,1 55940U 23037AC  24120.56258613  .00000647  00000-0  62018-4 0  9991,2 55940  70.0004 196.7721 0003100 270.2674  89.8130 14.98331328 62594,6950.189,96.107,574.208,569.899,0.0
55940.0,STARLINK-5864,PAYLOAD,2024-04-29 15:06:15,14.98332305,0.000308,70.0005,196.6038,269.9612,90.1195,7.3443e-05,7.83e-06,0.0,0 STARLINK-5864,1 55940U 23037AC  24120.62934522  .00000783  00000-0  73443-4 0  9993,2 55940  70.0005 196.6038 0003080 269.9612  90.1195 14.98332305 62265,6950.186,96.107,574.191,569.91,0.0
55940.0,STARLINK-5864,PAYLOAD,2024-04-30 13:32:07,14.9833405,0.0003041,70.0004,194.2476,270.6213,89.4598,0.00024296,2.807e-05,0.0,0 STARLINK-5864,1 55940U 23037AC  24121.56397883  .00002807  00000-0  24296-3 0  9990,2 55940  70.0004 194.2476 0003041 270.6213  89.4598 14.98334050 62747,6950.18,96.107,574.159,569.932,0.0
55940.0,STARLINK-5864,PAYLOAD,2024-04-30 21:32:48,14.98331255,0.0003036,70.0004,193.4059,270.369,89.7121,0.00014006,1.579e-05,0.0,0 STARLINK-5864,1 55940U 23037AC  24121.89778230  .00001579  00000-0  14006-3 0  9998,2 55940  70.0004 193.4059 0003036 270.3690  89.7121 14.98331255 62452,6950.189,96.107,574.164,569.944,0.0
55940.0,STARLINK-5864,PAYLOAD,2024-05-01 05:33:28,14.98333143,0.0002885,70.0008,192.5647,270.8995,89.1833,3.9772e-06,-4.6e-07,0.0,0 STARLINK-5864,1 55940U 23037AC  24122.23158481 -.00000046  00000-0  39772-5 0  9995,2 55940  70.0008 192.5647 0002885 270.8995  89.1833 14.98333143 62848,6950.183,96.107,574.053,570.043,0.0
55940.0,STARLINK-5864,PAYLOAD,2024-05-01 21:34:49,14.98335689,0.0002875,70.0008,190.8821,269.5222,90.5608,-2.7421e-05,-4.2e-06,0.0,0 STARLINK-5864,1 55940U 23037AC  24122.89918124 -.00000420  00000-0 -27421-4 0  9999,2 55940  70.0008 190.8821 0002875 269.5222  90.5608 14.98335689 62607,6950.175,96.107,574.038,570.042,0.0
55940.0,STARLINK-5864,PAYLOAD,2024-05-02 05:35:29,14.98334564,0.0002765,70.0011,190.0407,270.2276,89.8566,-0.00011035,-1.41e-05,0.0,0 STARLINK-5864,1 55940U 23037AC  24123.23298322 -.00001410  00000-0 -11035-3 0  9992,2 55940  70.0011 190.0407 0002765 270.2276  89.8566 14.98334564 62996,6950.179,96.107,573.966,570.122,0.0
55940.0,STARLINK-5864,PAYLOAD,2024-05-02 13:36:10,14.98332742,0.0002799,70.0008,189.199,271.3541,88.7297,-0.00011864,-1.508e-05,0.0,0 STARLINK-5864,1 55940U 23037AC  24123.56678373 -.00001508  00000-0 -11864-3 0  9994,2 55940  70.0008 189.1990 0002799 271.3541  88.7297 14.98332742 62706,6950.184,96.107,573.995,570.104,0.0
55940.0,STARLINK-5864,PAYLOAD,2024-05-03 04:01:21,14.98338318,0.0002905,70.0004,187.6838,271.1302,88.9525,8.3508e-05,9.04e-06,0.0,0 STARLINK-5864,1 55940U 23037AC  24124.16761220  .00000904  00000-0  83508-4 0  9997,2 55940  70.0004 187.6838 0002905 271.1302  88.9525 14.98338318 63137,6950.167,96.106,574.051,570.013,0.0
55940.0,STARLINK-5864,PAYLOAD,2024-05-03 13:38:09,14.98342179,0.000294,70.0003,186.6738,271.3263,88.7559,8.8324e-05,9.61e-06,0.0,0 STARLINK-5864,1 55940U 23037AC  24124.56816714  .00000961  00000-0  88324-4 0  9994,2 55940  70.0003 186.6738 0002940 271.3263  88.7559 14.98342179 62854,6950.155,96.106,574.064,569.977,0.0
55940.0,STARLINK-5864,PAYLOAD,2024-05-03 21:38:51,14.98321114,0.0002766,70.002,185.8336,271.164,88.9202,-2.034e-06,-1.17e-06,0.0,0 STARLINK-5864,1 55940U 23037AC  24124.90198208 -.00000117  00000-0 -20340-5 0  9993,2 55940  70.0020 185.8336 0002766 271.1640  88.9202 14.98321114 62900,6950.22,96.108,574.008,570.163,0.0
55940.0,STARLINK-5864,PAYLOAD,2024-05-04 05:39:32,14.98316924,0.000299,69.9998,184.9904,267.5717,92.51,-5.8392e-05,-7.89e-06,0.0,0 STARLINK-5864,1 55940U 23037AC  24125.23578791 -.00000789  00000-0 -58392-4 0  9991,2 55940  69.9998 184.9904 0002990 267.5717  92.5100 14.98316924 63299,6950.233,96.108,574.176,570.02,0.0
55940.0,STARLINK-5864,PAYLOAD,2024-05-04 12:04:01,14.98349039,0.0003234,69.9996,184.3166,268.5016,91.5773,0.00025436,2.945e-05,0.0,0 STARLINK-5864,1 55940U 23037AC  24125.50279936  .00002945  00000-0  25436-3 0  9996,2 55940  69.9996 184.3166 0003234 268.5016  91.5773 14.98349039 63339,6950.134,96.106,574.247,569.751,0.0
55940.0,STARLINK-5864,PAYLOAD,2024-05-04 13:40:10,14.98343308,0.0002988,69.9998,184.1485,268.6506,91.431,0.00018235,2.084e-05,0.0,0 STARLINK-5864,1 55940U 23037AC  24125.56956432  .00002084  00000-0  18235-3 0  9998,2 55940  69.9998 184.1485 0002988 268.6506  91.4310 14.98343308 63343,6950.152,96.106,574.093,569.94,0.0
55940.0,STARLINK-5864,PAYLOAD,2024-05-05 04:05:23,14.98336671,0.0002848,69.9998,182.6334,269.0313,91.052,-2.8954e-05,-4.38e-06,0.0,0 STARLINK-5864,1 55940U 23037AC  24126.17041181 -.00000438  00000-0 -28954-4 0  9995,2 55940  69.9998 182.6334 0002848 269.0313  91.0520 14.98336671 63439,6950.172,96.107,574.017,570.058,0.0
